[Satellite]
VERSION=1.1
NAME=NOAA 11 [-]
NICKNAME=NOAA 11 [-]
TLE1=1 19531U 88089A   19317.55697497 -.00000009  00000-0  16076-4 0  9999
TLE2=2 19531  98.4339 343.9697 0011761  33.9190 326.2734 14.15247507607139
STATUS=2
